[{"OBJECT_NAME":"STARLINK-32293","OBJECT_ID":"2024-183T","EPOCH":"2026-03-09T11:13:29.421696","MEAN_MOTION":15.30172137,"ECCENTRICITY":0.00015652,"INCLINATION":53.1615,"RA_OF_ASC_NODE":143.8124,"ARG_OF_PERICENTER":89.05,"MEAN_ANOMALY":271.068,"EPHEMERIS_TYPE":0,"CLASSIFICATION_TYPE":"U","NORAD_CAT_ID":61526,"ELEMENT_SET_NO":999,"REV_AT_EPOCH":7961,"BSTAR":-7.6267638e-5,"MEAN_MOTION_DOT":-2.615e-5,"MEAN_MOTION_DDOT":0},{"OBJECT_NAME":"SCS-01 M","OBJECT_ID":"2025-100M","EPOCH":"2026-03-09T23:50:15.541152","MEAN_MOTION":15.31880861,"ECCENTRICITY":0.00078021,"INCLINATION":97.3725,"RA_OF_ASC_NODE":145.6908,"ARG_OF_PERICENTER":292.3826,"MEAN_ANOMALY":67.6588,"EPHEMERIS_TYPE":0,"CLASSIFICATION_TYPE":"U","NORAD_CAT_ID":63993,"ELEMENT_SET_NO":999,"REV_AT_EPOCH":4565,"BSTAR":0.0012010051,"MEAN_MOTION_DOT":0.00037061,"MEAN_MOTION_DDOT":0}]
